{"type":"FeatureCollection","crs":{"type":"name","properties":{"name":"urn:ogc:def:crs:OGC:1.3:CRS84"}},"features":[{"type":"Feature","properties":{"SIG_CD":"11110","SIG_ENG_NM":"Jongno-gu","SIG_KOR_NM":"종로구"},"geometry":{"type":"Polygon","coordinates":[[[127.00864326221884,37.58046825204727],[127.02232684085057,37.57862854870725],[127.0233653243673,37.57191431278676],[126.96669820849176,37.56581995170477],[126.95355851287458,37.578748742448354],[126.9590513251438,37.595034471068196],[126.95301139131139,37.59893565554412],[126.95041269154223,37.62641955294218],[126.97302977149718,37.632374767564166],[126.97953713213934,37.62888768718294],[126.98678713694056,37.60451052708865],[126.97671868392565,37.59790603972068],[127.00095332936597,37.592300864647626],[127.00864326221884,37.58046825204727]]]}},{"type":"Feature","properties":{"SIG_CD":"11140","SIG_ENG_NM":"Jung-gu","SIG_KOR_NM":"중구"},"geometry":{"type":"Polygon","coordinates":[[[127.02313682632543,37.57196080977203],[127.0265128865668,37.563367534644996],[127.00898807284568,37.544134922956495],[127.00433621422309,37.550211187076464],[126.99522016889088,37.54723242966534],[126.97654787901351,37.55521921469463],[126.96234281041829,37.551548883619695],[126.96909869134876,37.56824768178345],[127.02313682632543,37.57196080977203]]]}},{"type":"Feature","properties":{"SIG_CD":"11170","SIG_ENG_NM":"Yongsan-gu","SIG_KOR_NM":"용산구"},"geometry":{"type":"Polygon","coordinates":[[[126.96918343789535,37.555662570962795],[126.9952198911382,37.54723242966362],[127.00433593647044,37.550211187074716],[127.0174394056361,37.533992844884175],[126.98554048916714,37.50654344686793],[126.9498865609616,37.51751414329306],[126.94481992332453,37.5345217517474],[126.96918343789535,37.555662570962795]]]}},{"type":"Feature","properties":{"SIG_CD":"11200","SIG_ENG_NM":"Seongdong-gu","SIG_KOR_NM":"성동구"},"geometry":{"type":"Polygon","coordinates":[[[127.04341316154634,37.572337149444515],[127.07373526396364,37.559414430556636],[127.05621905441532,37.52832385570593],[127.00983162399282,37.539453923084075],[127.00932347404238,37.54747532806295],[127.02674951765955,37.563893995236135],[127.02339167465009,37.571907271194114],[127.04341316154634,37.572337149444515]]]}},{"type":"Feature","properties":{"SIG_CD":"11215","SIG_ENG_NM":"Gwangjin-gu","SIG_KOR_NM":"광진구"},"geometry":{"type":"Polygon","coordinates":[[[127.10166491936154,37.57240065825183],[127.10185950212934,37.55949382678838],[127.11525258096357,37.55675982385771],[127.10828328245258,37.54140813136226],[127.07997598265712,37.52295067189457],[127.05621905441532,37.52832385570593],[127.07820196232183,37.571869753078474],[127.10166491936154,37.57240065825183]]]}},{"type":"Feature","properties":{"SIG_CD":"11230","SIG_ENG_NM":"Dongdaemun-gu","SIG_KOR_NM":"동대문구"},"geometry":{"type":"Polygon","coordinates":[[[127.0710794642156,37.607321718645],[127.07030252907454,37.58953366981094],[127.07822585293219,37.57188663107485],[127.07238436492516,37.559962600127896],[127.04190761850556,37.57296865367897],[127.0233653243673,37.57191431278676],[127.04183998185454,37.59645849089677],[127.0710794642156,37.607321718645]]]}},{"type":"Feature","properties":{"SIG_CD":"11260","SIG_ENG_NM":"Jungnang-gu","SIG_KOR_NM":"중랑구"},"geometry":{"type":"Polygon","coordinates":[[[127.07019402489497,37.61545359504369],[127.11714701957051,37.617888439112086],[127.11666476239728,37.59401654488886],[127.09947517285508,37.57274768164161],[127.07814523972453,37.57192553400444],[127.07030164929382,37.589537328322045],[127.07019402489497,37.61545359504369]]]}},{"type":"Feature","properties":{"SIG_CD":"11290","SIG_ENG_NM":"Seongbuk-gu","SIG_KOR_NM":"성북구"},"geometry":{"type":"Polygon","coordinates":[[[127.01059113253233,37.580253773768696],[127.00095332936597,37.592300864647626],[126.97671868392565,37.59790603972068],[126.98678713694056,37.60451052708865],[126.98364817000267,37.621147273562954],[126.97467092823835,37.629740916319804],[126.97780476522976,37.6339105863097],[126.98591797928707,37.6357887833964],[127.03025948980343,37.608973720623915],[127.04973693386948,37.62426630312396],[127.07144846069949,37.61418304289955],[127.07037085041871,37.607036360636705],[127.04184211157688,37.59646018401894],[127.02297630885488,37.57782739218581],[127.01059113253233,37.580253773768696]]]}},{"type":"Feature","properties":{"SIG_CD":"11305","SIG_ENG_NM":"Gangbuk-gu","SIG_KOR_NM":"강북구"},"geometry":{"type":"Polygon","coordinates":[[[127.00456669928406,37.68507980989074],[127.01870709699968,37.670855079234975],[127.0129050686911,37.65074688850999],[127.03194872285881,37.64217241020908],[127.04973665620577,37.62426629759199],[127.03025921214322,37.60897371509284],[126.98419867516972,37.636337449746094],[126.97965811073921,37.6560386408512],[126.99401724665077,37.66678312769974],[126.99219757789741,37.679626922961496],[127.00456669928406,37.68507980989074]]]}},{"type":"Feature","properties":{"SIG_CD":"11320","SIG_ENG_NM":"Dobong-gu","SIG_KOR_NM":"도봉구"},"geometry":{"type":"Polygon","coordinates":[[[127.01508681387975,37.649288344708744],[127.01870709838357,37.6708550803346],[127.00889995960522,37.680594479611045],[127.00966621339057,37.69669983079182],[127.02702192450863,37.70111547775823],[127.03241401897162,37.69183899710558],[127.04863168161688,37.694062964838025],[127.05577698691401,37.64062628895169],[127.05046715132909,37.64483138826302],[127.04252483114928,37.63041427020751],[127.01508681387975,37.649288344708744]]]}},{"type":"Feature","properties":{"SIG_CD":"11350","SIG_ENG_NM":"Nowon-gu","SIG_KOR_NM":"노원구"},"geometry":{"type":"Polygon","coordinates":[[[127.10769223979547,37.64496664653699],[127.10491653365298,37.62004327509943],[127.06324689647711,37.61426729180702],[127.05440808982355,37.619795893148904],[127.04165787561298,37.6314670250144],[127.05046715125397,37.64483139379515],[127.05577698683963,37.64062629448332],[127.04818730986284,37.670496574624345],[127.05180415818549,37.68706675949493],[127.06338615632384,37.69492193044973],[127.08110476912358,37.69613746868193],[127.09599595819121,37.68907104667083],[127.09269449815008,37.64857999322191],[127.10769223979547,37.64496664653699]]]}},{"type":"Feature","properties":{"SIG_CD":"11380","SIG_ENG_NM":"Eunpyeong-gu","SIG_KOR_NM":"은평구"},"geometry":{"type":"Polygon","coordinates":[[[126.95171836393132,37.65488968787277],[126.96332878726157,37.63324513743159],[126.94900241813596,37.6243351396247],[126.95036192929278,37.61061690184615],[126.94087790925391,37.59871634110305],[126.92085925506365,37.58293910216881],[126.91284517591897,37.5872245765414],[126.90208114604148,37.57600491611437],[126.88203089594275,37.59081768046515],[126.89685903319071,37.58856662077706],[126.90182975624346,37.595141350968035],[126.90030432144151,37.61119134447107],[126.9122798601688,37.6443153571913],[126.90480202297938,37.649201015078546],[126.91372082328495,37.64475565521802],[126.94269721761108,37.65791945834263],[126.95171836393132,37.65488968787277]]]}},{"type":"Feature","properties":{"SIG_CD":"11410","SIG_ENG_NM":"Seodaemun-gu","SIG_KOR_NM":"서대문구"},"geometry":{"type":"Polygon","coordinates":[[[126.95036186152788,37.61061651664734],[126.95905125823033,37.595034084409406],[126.95355844554074,37.57874835422307],[126.96946405860974,37.561975375153125],[126.93686396367772,37.55510137529778],[126.90208107408678,37.576004527476236],[126.9128451048813,37.58722418900529],[126.92175037499983,37.58345541348876],[126.95036186152788,37.61061651664734]]]}},{"type":"Feature","properties":{"SIG_CD":"11440","SIG_ENG_NM":"Mapo-gu","SIG_KOR_NM":"마포구"},"geometry":{"type":"Polygon","coordinates":[[[126.8820559869613,37.59079225326688],[126.93686396367772,37.55510137529778],[126.96168914430518,37.558982011644744],[126.96373130827645,37.548792191963756],[126.94458539742492,37.53378045854618],[126.93033332333621,37.54135570057067],[126.9048332844963,37.54141642253644],[126.85363177727677,37.571790102273525],[126.87626048370505,37.57818484048827],[126.8820559869613,37.59079225326688]]]}},{"type":"Feature","properties":{"SIG_CD":"11470","SIG_ENG_NM":"Yangcheon-gu","SIG_KOR_NM":"양천구"},"geometry":{"type":"Polygon","coordinates":[[[126.86420766630054,37.55115203885445],[126.88081123912896,37.54807696965168],[126.89068428465217,37.531656209871265],[126.87875380928753,37.52535496110025],[126.87358041467695,37.503560244876844],[126.8528670909964,37.510685965971575],[126.83524681125134,37.50286942524958],[126.82406015977438,37.51048121330526],[126.82883740205418,37.5265158645636],[126.82159056859643,37.539711903012744],[126.82758448245838,37.54768226396523],[126.84048705607114,37.52648417285643],[126.86397302858475,37.52978897021822],[126.86420766630054,37.55115203885445]]]}},{"type":"Feature","properties":{"SIG_CD":"11500","SIG_ENG_NM":"Gangseo-gu","SIG_KOR_NM":"강서구"},"geometry":{"type":"Polygon","coordinates":[[[126.80644936766083,37.602239406561516],[126.8804639834635,37.5562694260678],[126.88025588741047,37.54773570901152],[126.86420766630054,37.55115203885445],[126.86397302858475,37.52978897021822],[126.84047751270025,37.52648725926323],[126.82975864616974,37.54773218066928],[126.82212129692392,37.54067789743701],[126.80624069466957,37.54440758505825],[126.79442517022318,37.535828888072594],[126.79181927590304,37.54374625338296],[126.76449486107587,37.55527509264268],[126.77784211895553,37.55993305601385],[126.77476219034335,37.56770833084535],[126.79134893426053,37.58141373199098],[126.79321925874159,37.57689382297961],[126.8012273110771,37.589348862276516],[126.79792345053777,37.60001310654622],[126.80644936766083,37.602239406561516]]]}},{"type":"Feature","properties":{"SIG_CD":"11530","SIG_ENG_NM":"Guro-gu","SIG_KOR_NM":"구로구"},"geometry":{"type":"Polygon","coordinates":[[[126.87948428363137,37.517775206651464],[126.8918856994164,37.510117628960316],[126.89612431689038,37.48933856249685],[126.90319861828972,37.48500268620741],[126.89899049683228,37.47914879237444],[126.87455644219213,37.48536674926904],[126.86822945383888,37.49512831090493],[126.84651717442993,37.48159893565243],[126.84495516494135,37.47347237650348],[126.81462854489153,37.47464944208558],[126.82358711967188,37.48774241883626],[126.81301239793999,37.496400655870715],[126.82222289017345,37.50768732407991],[126.83524681125134,37.50286942524958],[126.8528670909785,37.51068597498154],[126.87356858287464,37.503554889147225],[126.87948428363137,37.517775206651464]]]}},{"type":"Feature","properties":{"SIG_CD":"11545","SIG_ENG_NM":"Geumcheon-gu","SIG_KOR_NM":"금천구"},"geometry":{"type":"Polygon","coordinates":[[[126.87455644219213,37.48536674926904],[126.8950852830742,37.47850478138567],[126.90978601702575,37.480765953760034],[126.91402644798114,37.45788987876319],[126.92827965862014,37.449352684592235],[126.90298757065891,37.434067584859974],[126.87455644219213,37.48536674926904]]]}},{"type":"Feature","properties":{"SIG_CD":"11560","SIG_ENG_NM":"Yeongdeungpo-gu","SIG_KOR_NM":"영등포구"},"geometry":{"type":"Polygon","coordinates":[[[126.88046390965634,37.55626903548101],[126.9048332844963,37.54141642253644],[126.93855818352647,37.5378349680427],[126.94987861983465,37.5270282561911],[126.94988677134091,37.517513749230936],[126.92686202473793,37.51554402709677],[126.91981963674803,37.49779956224058],[126.89865157570839,37.48664132945432],[126.89188562686873,37.510117234008675],[126.87819569956764,37.518778922040525],[126.88067455062723,37.52755013597144],[126.8906842118874,37.531655816968815],[126.88046390965634,37.55626903548101]]]}},{"type":"Feature","properties":{"SIG_CD":"11590","SIG_ENG_NM":"Dongjak-gu","SIG_KOR_NM":"동작구"},"geometry":{"type":"Polygon","coordinates":[[[126.95470859450165,37.516032608325425],[126.98538509944267,37.4998608297719],[126.98169132659544,37.476530552128686],[126.96479423903183,37.47949136471707],[126.96028935401782,37.49374371066628],[126.92787953710474,37.495070733547514],[126.90319861830156,37.48500267719742],[126.91981970672248,37.497799958275216],[126.92686209416918,37.515544421419975],[126.95470859450165,37.516032608325425]]]}},{"type":"Feature","properties":{"SIG_CD":"11620","SIG_ENG_NM":"Gwanak-gu","SIG_KOR_NM":"관악구"},"geometry":{"type":"Polygon","coordinates":[[[126.92801917197241,37.495022382772454],[126.96028935401782,37.49374371066628],[126.96479423903183,37.47949136471707],[126.98169132659544,37.476530552128686],[126.98863578225537,37.458165956840666],[126.97457955924607,37.45441287469801],[126.96294292661409,37.440280457835684],[126.93862190725254,37.43602851496143],[126.92252988113255,37.4563292449701],[126.91402644798114,37.45788987876319],[126.90978601702575,37.480765953760034],[126.8989437954713,37.47894010690918],[126.92801917197241,37.495022382772454]]]}},{"type":"Feature","properties":{"SIG_CD":"11650","SIG_ENG_NM":"Seocho-gu","SIG_KOR_NM":"서초구"},"geometry":{"type":"Polygon","coordinates":[[[127.00857826409263,37.52559503575689],[127.03408735028397,37.48436897301328],[127.04175077639766,37.48543601013748],[127.05075556244397,37.46729596461782],[127.08450471456723,37.475613892305574],[127.09567658490865,37.46100420049519],[127.08785512511972,37.4448942710183],[127.07213849890711,37.44226307020766],[127.0709525095692,37.430213064780986],[127.05232462063944,37.42829747778836],[127.03557372419804,37.43900409775254],[127.03192176334836,37.46551888212889],[127.015064993282,37.45483188245034],[127.00367535606367,37.46772038557703],[126.98787601483131,37.45927242298987],[126.980403614601,37.50654460460956],[127.00857826409263,37.52559503575689]]]}},{"type":"Feature","properties":{"SIG_CD":"11680","SIG_ENG_NM":"Gangnam-gu","SIG_KOR_NM":"강남구"},"geometry":{"type":"Polygon","coordinates":[[[127.0396797185555,37.535840140918765],[127.06750115244091,37.52458374853896],[127.06981675995786,37.50273918637545],[127.10351519261056,37.4927031076364],[127.12420693151269,37.466520883919515],[127.1168960931216,37.4586405249619],[127.10434122976966,37.46217475422663],[127.09889319330318,37.45611617463921],[127.08450471456723,37.475613892305574],[127.05075556244397,37.46729596461782],[127.04175077639766,37.48543601013748],[127.03408735028397,37.48436897301328],[127.01782245481363,37.52181196916026],[127.00857826409263,37.52559503575689],[127.02117313829054,37.53582003774279],[127.0396797185555,37.535840140918765]]]}},{"type":"Feature","properties":{"SIG_CD":"11710","SIG_ENG_NM":"Songpa-gu","SIG_KOR_NM":"송파구"},"geometry":{"type":"Polygon","coordinates":[[[127.11310504443003,37.543170920447174],[127.12343992286678,37.538644480098334],[127.11909281044241,37.52795972911501],[127.14532885675075,37.51660715854649],[127.14061437913841,37.51558876854783],[127.14104839440135,37.50540671611731],[127.16139030327268,37.50020104956568],[127.14714532953985,37.47722179787515],[127.13285604904866,37.47462645849722],[127.1308300098743,37.46774525758259],[127.12420970039707,37.46651710385804],[127.10351513910113,37.492702711679954],[127.06981670339432,37.50273879127061],[127.06750109557048,37.52458335549642],[127.0856332422835,37.52476020534356],[127.11310504443003,37.543170920447174]]]}},{"type":"Feature","properties":{"SIG_CD":"11740","SIG_ENG_NM":"Gangdong-gu","SIG_KOR_NM":"강동구"},"geometry":{"type":"Polygon","coordinates":[[[127.17715487387271,37.581200715469535],[127.18379492506567,37.545574310609254],[127.16316277869153,37.544991401476885],[127.1450919852935,37.516835341696485],[127.11909286271958,37.52796012169337],[127.12343997480211,37.53864487165433],[127.10914275985158,37.543166258544034],[127.11564563183364,37.55769987946435],[127.12861049140608,37.56616043533508],[127.17715487387271,37.581200715469535]]]}}]}